     3.02           N: GNSS NAV DATA    C: BDS              RINEX VERSION / TYPE
cnvtToRINEX 2.60.0  REGINA              03-Jan-17 00:17 UTC PGM / RUN BY / DATE 
----------------------------------------------------------- COMMENT             
BDUT   -0.931322574615D-09-0.177635683940D-14 405504 1930   TIME SYSTEM CORR    
     4                                                      LEAP SECONDS        
                                                            END OF HEADER       
C 3 2017 01 02 23 00 00 -0.329035101458D-03 0.397131216801D-10 0.000000000000D+00
     0.100000000000D+01 -0.508125000000D+03 0.388873340993D-08 -0.234504700908D+01
    -0.168518163264D-04 0.640270649455D-03 -0.439118593931D-06 0.649347334290D+04
     0.169200000000D+06 0.344589352608D-07 -0.308628339001D+01 0.442378222942D-07
     0.765501435922D-01 0.144843750000D+02 0.850990548795D+00 -0.277582991017D-08
    -0.296798077117D-09 0.000000000000D+00 0.574000000000D+03 0.000000000000D+00
     0.240000000000D+01 0.000000000000D+00 0.690000012682D-08 0.929000000000D+03
     0.169290000000D+06 0.000000000000D+00 0.000000000000D+00 0.000000000000D+00
C10 2017 01 02 23 00 00 -0.313687254675D-03 -0.196749283532D-10 0.000000000000D+00
     0.100000000000D+01 0.862187500000D+02 0.102539985488D-08 0.401063624493D+00
     0.284006819129D-05 0.434239022434D-02 0.200388021767D-04 0.649307040787D+04
     0.169200000000D+06 -0.693835318089D-07 -0.258652356574D+01 -0.232830643654D-07
     0.932969572602D+00 -0.381125000000D+03 -0.268350507192D+01 -0.189079304483D-08
    -0.523236080597D-09 0.000000000000D+00 0.574000000000D+03 0.000000000000D+00
     0.240000000000D+01 0.000000000000D+00 0.859999982339D-08 0.310000000000D+02
     0.169200000000D+06 0.000000000000D+00 0.000000000000D+00 0.000000000000D+00
C11 2017 01 02 23 00 00 0.135142123327D-03 -0.735589367196D-11 0.948676900925D-19
     0.600000000000D+01 -0.240468750000D+02 0.375729936374D-08 0.748254800639D+00
    -0.110967084765D-05 0.235746637918D-02 0.215508043766D-05 0.528260971832D+04
     0.169200000000D+06 -0.931322574615D-07 -0.717703817805D+00 0.698491930962D-08
     0.979794329715D+00 0.329250000000D+03 -0.246614549807D+01 -0.708172355364D-08
    -0.546451333320D-10 0.000000000000D+00 0.574000000000D+03 0.000000000000D+00
     0.240000000000D+01 0.000000000000D+00 0.779999975720D-08 0.220000000000D+02
     0.169200000000D+06 0.500000000000D+01 0.000000000000D+00 0.000000000000D+00
C 4 2017 01 02 23 00 00 -0.151023268700D-04 0.270521383072D-10 0.000000000000D+00
     0.100000000000D+01 -0.562625000000D+03 0.386408952627D-08 0.273261898569D+00
    -0.185463577509D-04 0.742714502849D-03 -0.753765925765D-05 0.649341484642D+04
     0.169200000000D+06 0.128988176584D-06 0.303810297890D+01 -0.367872416973D-07
     0.774650145231D-01 0.233656250000D+03 -0.745399402523D+00 -0.286476218599D-08
    -0.324656380384D-09 0.000000000000D+00 0.574000000000D+03 0.000000000000D+00
     0.240000000000D+01 0.000000000000D+00 0.580000003580D-08 0.942000000000D+03
     0.169200000000D+06 0.000000000000D+00 0.000000000000D+00 0.000000000000D+00
C 7 2017 01 02 23 00 00 -0.630845315754D-04 -0.840838509930D-11 0.000000000000D+00
     0.200000000000D+01 0.676250000000D+02 0.106790162525D-08 0.806673357618D+00
     0.244518741965D-05 0.500227138400D-02 0.196225009859D-04 0.649313440323D+04
     0.169200000000D+06 -0.156927853823D-06 -0.257722856755D+01 -0.796280801296D-07
     0.931468579154D+00 -0.367968750000D+03 -0.266059572506D+01 -0.186436337250D-08
    -0.582167106740D-09 0.000000000000D+00 0.574000000000D+03 0.000000000000D+00
     0.240000000000D+01 0.000000000000D+00 0.166999996054D-07 0.140000000000D+02
     0.169200000000D+06 0.100000000000D+01 0.000000000000D+00 0.000000000000D+00
C 1 2017 01 02 23 00 00 -0.130425440148D-03 0.393045596070D-10 0.000000000000D+00
     0.100000000000D+01 -0.517312500000D+03 0.377944314326D-08 -0.313447974401D+00
    -0.171624124050D-04 0.467318342999D-03 0.910367816687D-06 0.649348941231D+04
     0.169200000000D+06 0.330619513988D-07 -0.305409745286D+01 0.121071934700D-07
     0.855509153104D-01 -0.249531250000D+02 -0.698286887960D+00 -0.264582449492D-08
    -0.311084386485D-09 0.000000000000D+00 0.574000000000D+03 0.000000000000D+00
     0.240000000000D+01 0.000000000000D+00 0.142000002867D-07 0.920000000000D+03
     0.169200000000D+06 0.000000000000D+00 0.000000000000D+00 0.000000000000D+00
C 7 2017 01 03 00 00 00 -0.631139846519D-04 -0.842437231086D-11 -0.189735380185D-18
     0.300000000000D+01 0.587812500000D+02 0.101539943832D-08 0.106860169774D+01
     0.218069180846D-05 0.500344845932D-02 0.207033008337D-04 0.649314246750D+04
     0.172800000000D+06 -0.126194208860D-06 -0.257723479958D+01 -0.182073563337D-06
     0.931466520828D+00 -0.403046875000D+03 -0.265997219573D+01 -0.186936358078D-08
    -0.625383192577D-09 0.000000000000D+00 0.574000000000D+03 0.000000000000D+00
     0.240000000000D+01 0.000000000000D+00 0.166999996054D-07 0.140000000000D+02
     0.172800000000D+06 0.200000000000D+01 0.000000000000D+00 0.000000000000D+00
C11 2017 01 03 00 00 00 0.135115580633D-03 -0.735500549354D-11 0.948676900925D-19
     0.700000000000D+01 -0.266718750000D+02 0.376337104522D-08 0.123560836862D+01
    -0.126939266920D-05 0.235762633383D-02 0.233668833971D-05 0.528261077309D+04
     0.172800000000D+06 -0.479631125927D-07 -0.717729072160D+00 -0.321306288242D-07
     0.979794070779D+00 0.326437500000D+03 -0.246592818452D+01 -0.709600986301D-08
    -0.964325882329D-10 0.000000000000D+00 0.574000000000D+03 0.000000000000D+00
     0.240000000000D+01 0.000000000000D+00 0.779999975720D-08 0.220000000000D+02
     0.172800000000D+06 0.600000000000D+01 0.000000000000D+00 0.000000000000D+00
C10 2017 01 03 00 00 00 -0.313758035190D-03 -0.196749283532D-10 0.000000000000D+00
     0.200000000000D+01 0.546718750000D+02 0.108325940782D-08 0.664138554459D+00
     0.186264514923D-05 0.433943141252D-02 0.193072482944D-04 0.649306136513D+04
     0.172800000000D+06 -0.842846930027D-07 -0.258653030101D+01 -0.838190317154D-08
     0.932967694215D+00 -0.357484375000D+03 -0.268402079882D+01 -0.188543567882D-08
    -0.526807657939D-09 0.000000000000D+00 0.574000000000D+03 0.000000000000D+00
     0.240000000000D+01 0.000000000000D+00 0.859999982339D-08 0.310000000000D+02
     0.172800000000D+06 0.100000000000D+01 0.000000000000D+00 0.000000000000D+00
C 1 2017 01 03 00 00 00 -0.130284344777D-03 0.392450516529D-10 0.000000000000D+00
     0.100000000000D+01 -0.510687500000D+03 0.253974864787D-08 -0.519176182115D-01
    -0.167735852301D-04 0.473479158245D-03 0.923173502088D-05 0.649350432205D+04
     0.172800000000D+06 0.214204192162D-07 -0.280884985034D+01 -0.274740159512D-07
     0.924957487735D-01 -0.276593750000D+03 -0.942527487893D+00 -0.150041964136D-08
    -0.351800368183D-09 0.000000000000D+00 0.574000000000D+03 0.000000000000D+00
     0.240000000000D+01 0.000000000000D+00 0.142000002867D-07 0.920000000000D+03
     0.172800000000D+06 0.000000000000D+00 0.000000000000D+00 0.000000000000D+00
C 4 2017 01 03 00 00 00 -0.150051200762D-04 0.270405919878D-10 0.000000000000D+00
     0.100000000000D+01 -0.651828125000D+03 0.234795494461D-08 0.530059028663D+00
    -0.212821178138D-04 0.748340156861D-03 0.202842056751D-05 0.649343190384D+04
     0.172800000000D+06 0.142492353916D-06 -0.295776357466D+01 -0.754371285439D-07
     0.806124608269D-01 -0.538593750000D+02 -0.102689345126D+01 -0.146006081739D-08
    -0.386801826134D-09 0.000000000000D+00 0.574000000000D+03 0.000000000000D+00
     0.240000000000D+01 0.000000000000D+00 0.580000003580D-08 0.942000000000D+03
     0.172800000000D+06 0.000000000000D+00 0.000000000000D+00 0.000000000000D+00
C14 2017 01 03 00 00 00 0.331609626301D-03 0.225570673251D-10 0.146367293286D-17
     0.400000000000D+01 0.229687500000D+02 0.387730436243D-08 -0.814782979622D+00
     0.119581818581D-05 0.173183297738D-02 0.110468827188D-04 0.528260800934D+04
     0.172800000000D+06 0.246800482273D-07 0.136196749932D+01 0.745058059692D-07
     0.956644561046D+00 0.133781250000D+03 -0.244876255686D+01 -0.678992568480D-08
     0.509306928964D-09 0.000000000000D+00 0.574000000000D+03 0.000000000000D+00
     0.240000000000D+01 0.000000000000D+00 0.112000000385D-07 0.230000000000D+02
     0.173340000000D+06 0.300000000000D+01 0.000000000000D+00 0.000000000000D+00
